COMMENT,ORIGINATOR,NORAD_CAT_ID,OBJECT_NAME,OBJECT_TYPE,CLASSIFICATION_TYPE,INTLDES,EPOCH,EPOCH_MICROSECONDS,MEAN_MOTION,ECCENTRICITY,INCLINATION,RA_OF_ASC_NODE,ARG_OF_PERICENTER,MEAN_ANOMALY,EPHEMERIS_TYPE,ELEMENT_SET_NO,REV_AT_EPOCH,BSTAR,MEAN_MOTION_DOT,MEAN_MOTION_DDOT,FILE,TLE_LINE0,TLE_LINE1,TLE_LINE2,OBJECT_ID,OBJECT_NUMBER,SEMIMAJOR_AXIS,PERIOD,APOGEE,PERIGEE,DECAYED
"GENERATED VIA SPACETRACK.ORG API","18 SPCS","55094","SPACEBEE-165","PAYLOAD","U","23001CP","2023-10-23 10:07:55","451712","15.25785513","0.001111","97.4607","355.7397","272.5624","87.4342","0","999","4461","0.0010152","0.00025972","0","4050204","0 SPACEBEE-165","1 55094U 23001CP  23296.42216958  .00025972  00000-0  10152-2 0  9994","2 55094  97.4607 355.7397 0011110 272.5624  87.4342 15.25785513 44614","2023-001CP","55094","6866.565","94.378","496.058","480.801","0"
"GENERATED VIA SPACETRACK.ORG API","18 SPCS","55094","SPACEBEE-165","PAYLOAD","U","23001CP","2023-10-24 09:44:28","628160","15.25827801","0.0011173","97.4606","356.7209","268.5962","91.3996","0","999","4476","0.00087335","0.00022351","0","4051575","0 SPACEBEE-165","1 55094U 23001CP  23297.40588690  .00022351  00000-0  87335-3 0  9994","2 55094  97.4606 356.7209 0011173 268.5962  91.3996 15.25827801 44767","2023-001CP","55094","6866.438","94.375","495.975","480.631","0"
"GENERATED VIA SPACETRACK.ORG API","18 SPCS","55094","SPACEBEE-165","PAYLOAD","U","23001CP","2023-10-24 09:44:28","628160","15.25827801","0.0011173","97.4606","356.7209","268.5962","91.3996","0","999","4476","0.00087335","0.00022351","0","4051588","0 SPACEBEE-165","1 55094U 23001CP  23297.40588690  .00022351  00000-0  87335-3 0  9994","2 55094  97.4606 356.7209 0011173 268.5962  91.3996 15.25827801 44767","2023-001CP","55094","6866.438","94.375","495.975","480.631","0"
"GENERATED VIA SPACETRACK.ORG API","18 SPCS","55094","SPACEBEE-165","PAYLOAD","U","23001CP","2023-10-25 21:56:26","825568","15.25897009","0.0011128","97.4608","358.2258","262.5607","97.4367","0","999","4499","0.00097826","0.00025105","0","4052522","0 SPACEBEE-165","1 55094U 23001CP  23298.91419937  .00025105  00000-0  97826-3 0  9994","2 55094  97.4608 358.2258 0011128 262.5607  97.4367 15.25897009 44991","2023-001CP","55094","6866.230","94.371","495.736","480.454","0"
"GENERATED VIA SPACETRACK.ORG API","18 SPCS","55094","SPACEBEE-165","PAYLOAD","U","23001CP","2023-10-26 04:14:10","192704","15.25913245","0.0011185","97.4608","358.4879","261.9281","98.0688","0","999","4503","0.0010528","0.00027044","0","4054082","0 SPACEBEE-165","1 55094U 23001CP  23299.17650686  .00027044  00000-0  10528-2 0  9998","2 55094  97.4608 358.4879 0011185 261.9281  98.0688 15.25913245 45036","2023-001CP","55094","6866.182","94.370","495.726","480.367","0"
"GENERATED VIA SPACETRACK.ORG API","18 SPCS","55094","SPACEBEE-165","PAYLOAD","U","23001CP","2023-10-26 16:49:36","341184","15.25941167","0.001118","97.4608","359.0112","259.6082","100.3896","0","999","4511","0.0010436","0.00026829","0","4054421","0 SPACEBEE-165","1 55094U 23001CP  23299.70111506  .00026829  00000-0  10436-2 0  9998","2 55094  97.4608 359.0112 0011180 259.6082 100.3896 15.25941167 45112","2023-001CP","55094","6866.098","94.368","495.639","480.286","0"
"GENERATED VIA SPACETRACK.ORG API","18 SPCS","55094","SPACEBEE-165","PAYLOAD","U","23001CP","2023-10-27 03:50:35","825568","15.25978249","0.0011175","97.4605","359.4694","257.9886","102.0099","0","999","4518","0.0014181","0.00036571","0","4055221","0 SPACEBEE-165","1 55094U 23001CP  23300.16013687  .00036571  00000-0  14181-2 0  9998","2 55094  97.4605 359.4694 0011175 257.9886 102.0099 15.25978249 45187","2023-001CP","55094","6865.987","94.366","495.524","480.179","0"
"GENERATED VIA SPACETRACK.ORG API","18 SPCS","55094","SPACEBEE-165","PAYLOAD","U","23001CP","2023-10-27 03:50:35","825568","15.25978249","0.0011175","97.4605","359.4694","257.9886","102.0099","0","999","4518","0.0014181","0.00036571","0","4055819","0 SPACEBEE-165","1 55094U 23001CP  23300.16013687  .00036571  00000-0  14181-2 0  9998","2 55094  97.4605 359.4694 0011175 257.9886 102.0099 15.25978249 45187","2023-001CP","55094","6865.987","94.366","495.524","480.179","0"
"GENERATED VIA SPACETRACK.ORG API","18 SPCS","55094","SPACEBEE-165","PAYLOAD","U","23001CP","2023-10-27 18:00:25","422336","15.26013279","0.0011219","97.4604","0.0581","255.4114","104.588","0","999","4527","0.0011321","0.00029183","0","4056385","0 SPACEBEE-165","1 55094U 23001CP  23300.75029424  .00029183  00000-0  11321-2 0  9993","2 55094  97.4604   0.0581 0011219 255.4114 104.5880 15.26013279 45275","2023-001CP","55094","6865.881","94.364","495.449","480.044","0"
"GENERATED VIA SPACETRACK.ORG API","18 SPCS","55094","SPACEBEE-165","PAYLOAD","U","23001CP","2023-10-27 18:00:25","422336","15.26013279","0.0011219","97.4604","0.0581","255.4114","104.588","0","999","4527","0.0011321","0.00029183","0","4056811","0 SPACEBEE-165","1 55094U 23001CP  23300.75029424  .00029183  00000-0  11321-2 0  9993","2 55094  97.4604   0.0581 0011219 255.4114 104.5880 15.26013279 45275","2023-001CP","55094","6865.881","94.364","495.449","480.044","0"
"GENERATED VIA SPACETRACK.ORG API","18 SPCS","55094","SPACEBEE-165","PAYLOAD","U","23001CP","2023-10-28 09:44:39","136992","15.26050906","0.0011232","97.4599","0.7127","253.2522","106.7484","0","999","4537","0.0010453","0.00026963","0","4057688","0 SPACEBEE-165","1 55094U 23001CP  23301.40600853  .00026963  00000-0  10453-2 0  9995","2 55094  97.4599   0.7127 0011232 253.2522 106.7484 15.26050906 45378","2023-001CP","55094","6865.769","94.361","495.345","479.922","0"
"GENERATED VIA SPACETRACK.ORG API","18 SPCS","55094","SPACEBEE-165","PAYLOAD","U","23001CP","2023-10-28 17:36:45","432288","15.26075704","0.0011253","97.4598","1.0399","252.5107","107.4902","0","999","4542","0.0012554","0.00032445","0","4058258","0 SPACEBEE-165","1 55094U 23001CP  23301.73385917  .00032445  00000-0  12554-2 0  9998","2 55094  97.4598   1.0399 0011253 252.5107 107.4902 15.26075704 45428","2023-001CP","55094","6865.694","94.360","495.285","479.833","0"
"GENERATED VIA SPACETRACK.ORG API","18 SPCS","55094","SPACEBEE-165","PAYLOAD","U","23001CP","2023-10-29 03:03:16","380288","15.26106566","0.0011265","97.4597","1.4327","251.3191","108.6825","0","999","4548","0.0014406","0.00037301","0","4058769","0 SPACEBEE-165","1 55094U 23001CP  23302.12727292  .00037301  00000-0  14406-2 0  9992","2 55094  97.4597   1.4327 0011265 251.3191 108.6825 15.26106566 45489","2023-001CP","55094","6865.602","94.358","495.201","479.733","0"
"GENERATED VIA SPACETRACK.ORG API","18 SPCS","55094","SPACEBEE-165","PAYLOAD","U","23001CP","2023-10-29 03:03:16","380288","15.26106566","0.0011265","97.4597","1.4327","251.3191","108.6825","0","999","4548","0.0014406","0.00037301","0","4059417","0 SPACEBEE-165","1 55094U 23001CP  23302.12727292  .00037301  00000-0  14406-2 0  9992","2 55094  97.4597   1.4327 0011265 251.3191 108.6825 15.26106566 45489","2023-001CP","55094","6865.602","94.358","495.201","479.733","0"
"GENERATED VIA SPACETRACK.ORG API","18 SPCS","55094","SPACEBEE-165","PAYLOAD","U","23001CP","2023-10-29 17:13:01","540416","15.26151181","0.0011244","97.4594","2.0214","248.6158","111.3881","0","999","4557","0.0014055","0.00036435","0","4059994","0 SPACEBEE-165","1 55094U 23001CP  23302.71737894  .00036435  00000-0  14055-2 0  9993","2 55094  97.4594   2.0214 0011244 248.6158 111.3881 15.26151181 45573","2023-001CP","55094","6865.468","94.355","495.052","479.613","0"
"GENERATED VIA SPACETRACK.ORG API","18 SPCS","55094","SPACEBEE-165","PAYLOAD","U","23001CP","2023-10-30 10:31:34","734144","15.26203063","0.0011309","97.4593","2.741","245.3451","114.661","0","999","4568","0.0013611","0.00035332","0","4061160","0 SPACEBEE-165","1 55094U 23001CP  23303.43859646  .00035332  00000-0  13611-2 0  9995","2 55094  97.4593   2.7410 0011309 245.3451 114.6610 15.26203063 45684","2023-001CP","55094","6865.312","94.352","494.941","479.413","0"
"GENERATED VIA SPACETRACK.ORG API","18 SPCS","55094","SPACEBEE-165","PAYLOAD","U","23001CP","2023-10-30 21:32:27","635712","15.26230975","0.0011312","97.4588","3.199","243.5809","116.4269","0","999","4575","0.0013021","0.00033819","0","4061878","0 SPACEBEE-165","1 55094U 23001CP  23303.89754208  .00033819  00000-0  13021-2 0  9996","2 55094  97.4588   3.1990 0011312 243.5809 116.4269 15.26230975 45757","2023-001CP","55094","6865.229","94.350","494.859","479.328","0"
"GENERATED VIA SPACETRACK.ORG API","18 SPCS","55094","SPACEBEE-165","PAYLOAD","U","23001CP","2023-10-31 10:07:44","350176","15.26260934","0.0011315","97.4587","3.7225","241.4149","118.5952","0","999","4583","0.0011619","0.00030183","0","4063027","0 SPACEBEE-165","1 55094U 23001CP  23304.42204109  .00030183  00000-0  11619-2 0  9998","2 55094  97.4587   3.7225 0011315 241.4149 118.5952 15.26260934 45839","2023-001CP","55094","6865.139","94.348","494.772","479.236","0"
"GENERATED VIA SPACETRACK.ORG API","18 SPCS","55094","SPACEBEE-165","PAYLOAD","U","23001CP","2023-10-31 10:07:44","350176","15.26260934","0.0011315","97.4587","3.7225","241.4149","118.5952","0","999","4583","0.0011619","0.00030183","0","4063043","0 SPACEBEE-165","1 55094U 23001CP  23304.42204109  .00030183  00000-0  11619-2 0  9998","2 55094  97.4587   3.7225 0011315 241.4149 118.5952 15.26260934 45839","2023-001CP","55094","6865.139","94.348","494.772","479.236","0"
"GENERATED VIA SPACETRACK.ORG API","18 SPCS","55094","SPACEBEE-165","PAYLOAD","U","23001CP","2023-10-31 16:25:22","369152","15.26275859","0.0011337","97.4584","3.984","240.4194","119.5915","0","999","4587","0.0010871","0.0002824","0","4063660","0 SPACEBEE-165","1 55094U 23001CP  23304.68428668  .00028240  00000-0  10871-2 0  9994","2 55094  97.4584   3.9840 0011337 240.4194 119.5915 15.26275859 45870","2023-001CP","55094","6865.094","94.347","494.742","479.176","0"
